<?xml version="1.0" encoding="UTF-8"?>
<kml xmlns="http://www.opengis.net/kml/2.2" xmlns:gx="http://www.google.com/kml/ext/2.2" xmlns:kml="http://www.opengis.net/kml/2.2" xmlns:atom="http://www.w3.org/2005/Atom">
<Document>
	<name>001-julio-P1.kml</name>
	<StyleMap id="m_ylw-pushpin">
		<Pair>
			<key>normal</key>
			<styleUrl>#s_ylw-pushpin</styleUrl>
		</Pair>
		<Pair>
			<key>highlight</key>
			<styleUrl>#s_ylw-pushpin_hl</styleUrl>
		</Pair>
	</StyleMap>
	<Style id="s_ylw-pushpin">
		<IconStyle>
			<scale>1.1</scale>
			<Icon>
				<href>http://maps.google.com/mapfiles/kml/pushpin/ylw-pushpin.png</href>
			</Icon>
			<hotSpot x="20" y="2" xunits="pixels" yunits="pixels"/>
		</IconStyle>
	</Style>
	<Style id="s_ylw-pushpin_hl">
		<IconStyle>
			<scale>1.3</scale>
			<Icon>
				<href>http://maps.google.com/mapfiles/kml/pushpin/ylw-pushpin.png</href>
			</Icon>
			<hotSpot x="20" y="2" xunits="pixels" yunits="pixels"/>
		</IconStyle>
	</Style>
	<Placemark>
		<name>001-julio-P1</name>
		<description>Productor: Julio Atzalan Jimenez
Localidad: Almilinga
CA: Almilinga
Hectareas:
Clon: RJ45</description>
		<LookAt>
			<longitude>-96.79929045950126</longitude>
			<latitude>18.5389062867586</latitude>
			<altitude>0</altitude>
			<heading>-1.70954814128664e-14</heading>
			<tilt>0</tilt>
			<range>1000.000000001763</range>
			<gx:altitudeMode>relativeToSeaFloor</gx:altitudeMode>
		</LookAt>
		<styleUrl>#m_ylw-pushpin</styleUrl>
		<gx:balloonVisibility>1</gx:balloonVisibility>
		<Polygon>
			<tessellate>1</tessellate>
			<outerBoundaryIs>
				<LinearRing>
					<coordinates>
						-96.79768182356324,18.53869918598477,0 -96.79768182356324,18.53869918598477,0 -96.79724325379755,18.53955307514689,0 -96.79934557787961,18.5409192993572,0 -96.79972641951048,18.54070105597029,0 -96.80003583826836,18.54041993015562,0 -96.80021991979609,18.54030053142311,0 -96.80033878184189,18.54009499445776,0 -96.80082347452738,18.54033412727486,0 -96.8015824759815,18.54053237240353,0 -96.80186077104835,18.5401016805618,0 -96.80194681475831,18.5397854549759,0 -96.80192979206805,18.53934326326091,0 -96.80179405154331,18.53921263369864,0 -96.8011934765171,18.53849570802695,0 -96.80145293909297,18.5380528754577,0 -96.80102291785063,18.53771550916662,0 -96.80047432091023,18.53820052572211,0 -96.80019999691196,18.53784206612555,0 -96.79966622678822,18.53814432720246,0 -96.79911759007049,18.53732900656501,0 -96.79842073372382,18.53770858634702,0 -96.7975978173444,18.53689327416001,0 -96.79663410424421,18.53798275722518,0 -96.79768182356324,18.53869918598477,0 
					</coordinates>
				</LinearRing>
			</outerBoundaryIs>
		</Polygon>
		<atom:link rel="app" href="https://www.google.com/earth/about/versions/#earth-pro" title="Google Earth Pro 7.3.7.1155"></atom:link>
	</Placemark>
</Document>
</kml>
